{"type": "FeatureCollection", "features": [ {"type": "Feature", "properties": {"norad_id": 58662, "name": "TIANMU-1 21", "group": "weather", "lat": 8.372731530461111, "lon": 112.20224868257323, "alt_km": 476.52388285756297, "timestamp": "2025-12-25T20:42:38.331682+00:00", "meta": {"OBJECT_NAME": "TIANMU-1 21", "OBJECT_ID": "2023-208C", "EPOCH": "2025-12-25T06:33:50.012928", "MEAN_MOTION": 15.31816484, "ECCENTRICITY": 0.00064823, "INCLINATION": 97.4376, "RA_OF_ASC_NODE": 112.7123, "ARG_OF_PERICENTER": 208.5271, "MEAN_ANOMALY": 151.5616, "EPHEMERIS_TYPE": 0, "CLASSIFICATION_TYPE": "U", "NORAD_CAT_ID": 58662, "ELEMENT_SET_NO": 999, "REV_AT_EPOCH": 11091, "BSTAR": 0.0004030377, "MEAN_MOTION_DOT": 0.00012317, "MEAN_MOTION_DDOT": 0}, "tle": {"line1": "1 58662U 23208C   25359.27349552  .00012317  00000+0  40304-3 0  9990", "line2": "2 58662  97.4376 112.7123 0006482 208.5271 151.5616 15.31816484110915"}}, "geometry": {"type": "Point", "coordinates": [112.20224868257323, 8.372731530461111]}}, {"type": "Feature", "properties": {"norad_id": 58663, "name": "TIANMU-1 22", "group": "weather", "lat": 74.82830655845837, "lon": -40.26802812290822, "alt_km": 476.16909527626194, "timestamp": "2025-12-25T20:42:38.331692+00:00", "meta": {"OBJECT_NAME": "TIANMU-1 22", "OBJECT_ID": "2023-208D", "EPOCH": "2025-12-25T06:06:47.921184", "MEAN_MOTION": 15.27812815, "ECCENTRICITY": 0.00029946, "INCLINATION": 97.4382, "RA_OF_ASC_NODE": 110.322, "ARG_OF_PERICENTER": 223.1526, "MEAN_ANOMALY": 136.9479, "EPHEMERIS_TYPE": 0, "CLASSIFICATION_TYPE": "U", "NORAD_CAT_ID": 58663, "ELEMENT_SET_NO": 999, "REV_AT_EPOCH": 11074, "BSTAR": 0.00035850474, "MEAN_MOTION_DOT": 9.667e-05, "MEAN_MOTION_DDOT": 0}, "tle": {"line1": "1 58663U 23208D   25359.25472131  .00009667  00000+0  35850-3 0  9993", "line2": "2 58663  97.4382 110.3220 0002994 223.1526 136.9479 15.27812815110749"}}, "geometry": {"type": "Point", "coordinates": [-40.26802812290822, 74.82830655845837]}}, {"type": "Feature", "properties": {"norad_id": 58700, "name": "TIANMU-1 15", "group": "weather", "lat": 78.33107964126292, "lon": 141.88385152305688, "alt_km": 488.4939967164637, "timestamp": "2025-12-25T20:42:38.331704+00:00", "meta": {"OBJECT_NAME": "TIANMU-1 15", "OBJECT_ID": "2024-004A", "EPOCH": "2025-12-25T07:45:16.284096", "MEAN_MOTION": 15.24571456, "ECCENTRICITY": 0.00060835, "INCLINATION": 97.4629, "RA_OF_ASC_NODE": 180.7455, "ARG_OF_PERICENTER": 236.6358, "MEAN_ANOMALY": 123.4298, "EPHEMERIS_TYPE": 0, "CLASSIFICATION_TYPE": "U", "NORAD_CAT_ID": 58700, "ELEMENT_SET_NO": 999, "REV_AT_EPOCH": 10926, "BSTAR": 0.00031864577, "MEAN_MOTION_DOT": 7.783e-05, "MEAN_MOTION_DDOT": 0}, "tle": {"line1": "1 58700U 24004A   25359.32310514  .00007783  00000+0  31865-3 0  9993", "line2": "2 58700  97.4629 180.7455 0006083 236.6358 123.4298 15.24571456109266"}}, "geometry": {"type": "Point", "coordinates": [141.88385152305688, 78.33107964126292]}}, {"type": "Feature", "properties": {"norad_id": 58701, "name": "TIANMU-1 16", "group": "weather", "lat": 15.948896015260233, "lon": 2.8066692075051316, "alt_km": 491.86729768044097, "timestamp": "2025-12-25T20:42:38.331714+00:00", "meta": {"OBJECT_NAME": "TIANMU-1 16", "OBJECT_ID": "2024-004B", "EPOCH": "2025-12-25T07:23:33.296928", "MEAN_MOTION": 15.24599128, "ECCENTRICITY": 0.00044209, "INCLINATION": 97.4569, "RA_OF_ASC_NODE": 180.1092, "ARG_OF_PERICENTER": 238.639, "MEAN_ANOMALY": 121.4415, "EPHEMERIS_TYPE": 0, "CLASSIFICATION_TYPE": "U", "NORAD_CAT_ID": 58701, "ELEMENT_SET_NO": 999, "REV_AT_EPOCH": 10926, "BSTAR": 0.00031186814, "MEAN_MOTION_DOT": 7.621e-05, "MEAN_MOTION_DDOT": 0}, "tle": {"line1": "1 58701U 24004B   25359.30802427  .00007621  00000+0  31187-3 0  9999", "line2": "2 58701  97.4569 180.1092 0004420 238.6390 121.4415 15.24599128109267"}}, "geometry": {"type": "Point", "coordinates": [2.8066692075051316, 15.948896015260233]}}, {"type": "Feature", "properties": {"norad_id": 58702, "name": "TIANMU-1 17", "group": "weather", "lat": -69.13362733849573, "lon": -19.02785316642548, "alt_km": 496.7322047955777, "timestamp": "2025-12-25T20:42:38.331724+00:00", "meta": {"OBJECT_NAME": "TIANMU-1 17", "OBJECT_ID": "2024-004C", "EPOCH": "2025-12-25T07:00:51.309792", "MEAN_MOTION": 15.24641675, "ECCENTRICITY": 0.00035801, "INCLINATION": 97.4602, "RA_OF_ASC_NODE": 180.5099, "ARG_OF_PERICENTER": 239.5803, "MEAN_ANOMALY": 120.5081, "EPHEMERIS_TYPE": 0, "CLASSIFICATION_TYPE": "U", "NORAD_CAT_ID": 58702, "ELEMENT_SET_NO": 999, "REV_AT_EPOCH": 10925, "BSTAR": 0.00029028902, "MEAN_MOTION_DOT": 7.096e-05, "MEAN_MOTION_DDOT": 0}, "tle": {"line1": "1 58702U 24004C   25359.29226053  .00007096  00000+0  29029-3 0  9991", "line2": "2 58702  97.4602 180.5099 0003580 239.5803 120.5081 15.24641675109255"}}, "geometry": {"type": "Point", "coordinates": [-19.02785316642548, -69.13362733849573]}}, {"type": "Feature", "properties": {"norad_id": 58703, "name": "TIANMU-1 18", "group": "weather", "lat": -18.706463458853424, "lon": -176.18000550765552, "alt_km": 497.65454452534595, "timestamp": "2025-12-25T20:42:38.331734+00:00", "meta": {"OBJECT_NAME": "TIANMU-1 18", "OBJECT_ID": "2024-004D", "EPOCH": "2025-12-25T06:37:00.416064", "MEAN_MOTION": 15.24623884, "ECCENTRICITY": 0.00029766, "INCLINATION": 97.462, "RA_OF_ASC_NODE": 180.6914, "ARG_OF_PERICENTER": 236.2553, "MEAN_ANOMALY": 123.8401, "EPHEMERIS_TYPE": 0, "CLASSIFICATION_TYPE": "U", "NORAD_CAT_ID": 58703, "ELEMENT_SET_NO": 999, "REV_AT_EPOCH": 10925, "BSTAR": 0.00029067994, "MEAN_MOTION_DOT": 7.102e-05, "MEAN_MOTION_DDOT": 0}, "tle": {"line1": "1 58703U 24004D   25359.27569926  .00007102  00000+0  29068-3 0  9990", "line2": "2 58703  97.4620 180.6914 0002976 236.2553 123.8401 15.24623884109251"}}, "geometry": {"type": "Point", "coordinates": [-176.18000550765552, -18.706463458853424]}}, {"type": "Feature", "properties": {"norad_id": 58990, "name": "INSAT-3DS", "group": "weather", "lat": 0.04464062383511077, "lon": 127.37046783925342, "alt_km": 35790.73412139623, "timestamp": "2025-12-25T20:42:38.331746+00:00", "meta": {"OBJECT_NAME": "INSAT-3DS", "OBJECT_ID": "2024-033A", "EPOCH": "2025-12-24T23:45:39.809376", "MEAN_MOTION": 1.00271318, "ECCENTRICITY": 0.00012552, "INCLINATION": 0.0601, "RA_OF_ASC_NODE": 99.644, "ARG_OF_PERICENTER": 175.3991, "MEAN_ANOMALY": 257.2391, "EPHEMERIS_TYPE": 0, "CLASSIFICATION_TYPE": "U", "NORAD_CAT_ID": 58990, "ELEMENT_SET_NO": 999, "REV_AT_EPOCH": 4532, "BSTAR": 0, "MEAN_MOTION_DOT": -1.35e-06, "MEAN_MOTION_DDOT": 0}, "tle": {"line1": "1 58990U 24033A   25358.99004409 -.00000135  00000+0  00000+0 0  9999", "line2": "2 58990   0.0601  99.6440 0001255 175.3991 257.2391  1.00271318 45326"}}, "geometry": {"type": "Point", "coordinates": [127.37046783925342, 0.04464062383511077]}}, {"type": "Feature", "properties": {"norad_id": 59051, "name": "METEOR-M2 4", "group": "weather", "lat": 18.14256013396249, "lon": -46.30158552304665, "alt_km": 815.1874021863587, "timestamp": "2025-12-25T20:42:38.331757+00:00", "meta": {"OBJECT_NAME": "METEOR-M2 4", "OBJECT_ID": "2024-039A", "EPOCH": "2025-12-25T07:07:07.505760", "MEAN_MOTION": 14.22403181, "ECCENTRICITY": 0.00063839, "INCLINATION": 98.6785, "RA_OF_ASC_NODE": 316.0096, "ARG_OF_PERICENTER": 320.7304, "MEAN_ANOMALY": 39.341, "EPHEMERIS_TYPE": 0, "CLASSIFICATION_TYPE": "U", "NORAD_CAT_ID": 59051, "ELEMENT_SET_NO": 999, "REV_AT_EPOCH": 9454, "BSTAR": 4.060944e-05, "MEAN_MOTION_DOT": 4.7e-07, "MEAN_MOTION_DDOT": 0}, "tle": {"line1": "1 59051U 24039A   25359.29661465  .00000047  00000+0  40609-4 0  9994", "line2": "2 59051  98.6785 316.0096 0006383 320.7304  39.3410 14.22403181 94547"}}, "geometry": {"type": "Point", "coordinates": [-46.30158552304665, 18.14256013396249]}}, {"type": "Feature", "properties": {"norad_id": 60133, "name": "GOES 19", "group": "weather", "lat": 0.003036966424052663, "lon": -29.913630839886192, "alt_km": 35782.04629597586, "timestamp": "2025-12-25T20:42:38.331768+00:00", "meta": {"OBJECT_NAME": "GOES 19", "OBJECT_ID": "2024-119A", "EPOCH": "2025-12-25T04:31:42.625056", "MEAN_MOTION": 1.0027105, "ECCENTRICITY": 0.00010365, "INCLINATION": 0.0152, "RA_OF_ASC_NODE": 183.0311, "ARG_OF_PERICENTER": 137.5029, "MEAN_ANOMALY": 126.1624, "EPHEMERIS_TYPE": 0, "CLASSIFICATION_TYPE": "U", "NORAD_CAT_ID": 60133, "ELEMENT_SET_NO": 999, "REV_AT_EPOCH": 521, "BSTAR": 0, "MEAN_MOTION_DOT": -2.27e-06, "MEAN_MOTION_DDOT": 0}, "tle": {"line1": "1 60133U 24119A   25359.18868779 -.00000227  00000+0  00000+0 0  9998", "line2": "2 60133   0.0152 183.0311 0001036 137.5029 126.1624  1.00271050  5213"}}, "geometry": {"type": "Point", "coordinates": [-29.913630839886192, 0.003036966424052663]}}, {"type": "Feature", "properties": {"norad_id": 65815, "name": "FENGYUN 3H", "group": "weather", "lat": 39.824293309026324, "lon": 126.47083045375467, "alt_km": 822.0214749222587, "timestamp": "2025-12-25T20:42:38.331781+00:00", "meta": {"OBJECT_NAME": "FENGYUN 3H", "OBJECT_ID": "2025-219A", "EPOCH": "2025-12-25T06:31:34.001184", "MEAN_MOTION": 14.19907949, "ECCENTRICITY": 8.479e-05, "INCLINATION": 98.6602, "RA_OF_ASC_NODE": 298.5911, "ARG_OF_PERICENTER": 108.8403, "MEAN_ANOMALY": 251.2866, "EPHEMERIS_TYPE": 0, "CLASSIFICATION_TYPE": "U", "NORAD_CAT_ID": 65815, "ELEMENT_SET_NO": 999, "REV_AT_EPOCH": 1270, "BSTAR": 6.598625e-05, "MEAN_MOTION_DOT": 9.7e-07, "MEAN_MOTION_DDOT": 0}, "tle": {"line1": "1 65815U 25219A   25359.27192131  .00000097  00000+0  65986-4 0  9997", "line2": "2 65815  98.6602 298.5911 0000847 108.8403 251.2866 14.19907949 12709"}}, "geometry": {"type": "Point", "coordinates": [126.47083045375467, 39.824293309026324]}}]}